[{"OBJECT_NAME":"LEMUR-2-PETERG","OBJECT_ID":"2017-042S","EPOCH":"2026-03-09T11:34:35.656032","MEAN_MOTION":15.29611459,"ECCENTRICITY":0.00037,"INCLINATION":97.398,"RA_OF_ASC_NODE":253.6596,"ARG_OF_PERICENTER":341.6938,"MEAN_ANOMALY":18.4169,"EPHEMERIS_TYPE":0,"CLASSIFICATION_TYPE":"U","NORAD_CAT_ID":42841,"ELEMENT_SET_NO":999,"REV_AT_EPOCH":47317,"BSTAR":0.00081076471,"MEAN_MOTION_DOT":0.0002324,"MEAN_MOTION_DDOT":0},{"OBJECT_NAME":"STARLINK-35380","OBJECT_ID":"2025-224Z","EPOCH":"2026-03-09T03:59:40.174080","MEAN_MOTION":15.30197967,"ECCENTRICITY":0.00011702,"INCLINATION":53.1623,"RA_OF_ASC_NODE":13.8081,"ARG_OF_PERICENTER":92.0009,"MEAN_ANOMALY":268.1126,"EPHEMERIS_TYPE":0,"CLASSIFICATION_TYPE":"U","NORAD_CAT_ID":65905,"ELEMENT_SET_NO":999,"REV_AT_EPOCH":2474,"BSTAR":0.00025831571,"MEAN_MOTION_DOT":7.298e-5,"MEAN_MOTION_DDOT":0}]
